FLOCK 4Q-15             
1 58319U 23174BR  26062.16815313  .00129320  00000+0  16721-2 0  9992
2 58319  97.3927 152.7913 0005318 170.7245 189.4110 15.58480010129453
FLOCK 4Q-2              
1 58320U 23174BS  26062.19879066  .00029394  00000+0  63167-3 0  9999
2 58320  97.3879 148.4980 0007935 158.8900 201.2677 15.44599720129218
FLOCK 4Q-9              
1 58322U 23174BU  26062.15150685  .00029719  00000+0  64624-3 0  9996
2 58322  97.3915 148.4937 0008032 159.8423 200.3144 15.44247840129192
FLOCK 4Q-4              
1 58327U 23174BZ  26062.15147897  .00027952  00000+0  61554-3 0  9998
2 58327  97.3871 147.8740 0007429 177.1512 182.9780 15.43890340129171
FLOCK 4Q-13             
1 58328U 23174CA  26062.19709037  .00032260  00000+0  64927-3 0  9998
2 58328  97.4031 150.2994 0007491 172.0588 188.0782 15.46511262129261
FLOCK 4Q-21             
1 58329U 23174CB  26061.82756153  .00053240  00000+0  74620-3 0  9991
2 58329  97.3941 152.9037 0005799 178.8557 181.2713 15.56591717129428
FLOCK 4BE-18            
1 60480U 24149N   26062.17182412  .00022971  00000+0  61650-3 0  9991
2 60480  97.3789 145.0658 0003024 270.5222  89.5677 15.37952671 85990
FLOCK 4BE-7             
1 60481U 24149P   26062.17786273  .00018476  00000+0  52867-3 0  9992
2 60481  97.3822 144.6760 0001982 265.1044  94.9973 15.36004767 85959
FLOCK 4BE-26            
1 60484U 24149S   26062.20852313  .00098201  00000+0  22163-2 0  9997
2 60484  97.3775 144.9734 0005761 258.8004 101.2597 15.42833492 85997
FLOCK 4BE-36            
1 60486U 24149U   26062.20456614  .00024396  00000+0  63660-3 0  9995
2 60486  97.3800 145.6355 0002743 284.2656  75.8284 15.38809356 86030
FLOCK 4BE-25            
1 60487U 24149V   26062.19061235  .00018396  00000+0  53085-3 0  9998
2 60487  97.3856 144.8376 0001167 249.4178 110.6941 15.35740699 85956
FLOCK 4BE-31            
1 60488U 24149W   26062.17683153  .00026808  00000+0  68174-3 0  9998
2 60488  97.3855 146.2176 0001660 277.9076  82.1981 15.39582865 86042
FLOCK 4BE-20            
1 60489U 24149X   26062.16577177  .00016539  00000+0  48853-3 0  9998
2 60489  97.3762 143.9568 0002343 274.1197  85.9779 15.35026395 85931
FLOCK 4BE-23            
1 60490U 24149Y   26062.19614896  .00016388  00000+0  48965-3 0  9999
2 60490  97.3841 144.3058 0002055 290.0306  70.0715 15.34668414 85926
FLOCK 4BE-15            
1 60491U 24149Z   26062.21144420  .00081144  00000+0  20722-2 0  9996
2 60491  97.3779 145.3316 0002698 333.6517  26.4591 15.39172544 86024
FLOCK 4BE-17            
1 60492U 24149AA  26062.18219328  .00019555  00000+0  55294-3 0  9993
2 60492  97.3837 144.9552 0001989 264.2189  95.8829 15.36364348 85961
FLOCK 4BE-22            
1 60494U 24149AC  26062.18682885  .00023868  00000+0  65178-3 0  9991
2 60494  97.3790 145.0050 0002708 292.2655  67.8302 15.37408235 85998
