[{"OBJECT_NAME":"FLOCK 4Q-15","OBJECT_ID":"2023-174BR","EPOCH":"2026-03-03T04:02:08.430432","MEAN_MOTION":15.5848001,"ECCENTRICITY":0.0005318,"INCLINATION":97.3927,"RA_OF_ASC_NODE":152.7913,"ARG_OF_PERICENTER":170.7245,"MEAN_ANOMALY":189.411,"EPHEMERIS_TYPE":0,"CLASSIFICATION_TYPE":"U","NORAD_CAT_ID":58319,"ELEMENT_SET_NO":999,"REV_AT_EPOCH":12945,"BSTAR":0.0016721,"MEAN_MOTION_DOT":0.0012932,"MEAN_MOTION_DDOT":0},{"OBJECT_NAME":"FLOCK 4Q-2","OBJECT_ID":"2023-174BS","EPOCH":"2026-03-03T04:46:15.513024","MEAN_MOTION":15.4459972,"ECCENTRICITY":0.0007935,"INCLINATION":97.3879,"RA_OF_ASC_NODE":148.498,"ARG_OF_PERICENTER":158.89,"MEAN_ANOMALY":201.2677,"EPHEMERIS_TYPE":0,"CLASSIFICATION_TYPE":"U","NORAD_CAT_ID":58320,"ELEMENT_SET_NO":999,"REV_AT_EPOCH":12921,"BSTAR":0.00063167,"MEAN_MOTION_DOT":0.00029394,"MEAN_MOTION_DDOT":0},{"OBJECT_NAME":"FLOCK 4Q-9","OBJECT_ID":"2023-174BU","EPOCH":"2026-03-03T03:38:10.191840","MEAN_MOTION":15.4424784,"ECCENTRICITY":0.0008032,"INCLINATION":97.3915,"RA_OF_ASC_NODE":148.4937,"ARG_OF_PERICENTER":159.8423,"MEAN_ANOMALY":200.3144,"EPHEMERIS_TYPE":0,"CLASSIFICATION_TYPE":"U","NORAD_CAT_ID":58322,"ELEMENT_SET_NO":999,"REV_AT_EPOCH":12919,"BSTAR":0.00064624,"MEAN_MOTION_DOT":0.00029719,"MEAN_MOTION_DDOT":0},{"OBJECT_NAME":"FLOCK 4Q-4","OBJECT_ID":"2023-174BZ","EPOCH":"2026-03-03T03:38:07.783008","MEAN_MOTION":15.4389034,"ECCENTRICITY":0.0007429,"INCLINATION":97.3871,"RA_OF_ASC_NODE":147.874,"ARG_OF_PERICENTER":177.1512,"MEAN_ANOMALY":182.978,"EPHEMERIS_TYPE":0,"CLASSIFICATION_TYPE":"U","NORAD_CAT_ID":58327,"ELEMENT_SET_NO":999,"REV_AT_EPOCH":12917,"BSTAR":0.00061554,"MEAN_MOTION_DOT":0.00027952,"MEAN_MOTION_DDOT":0},{"OBJECT_NAME":"FLOCK 4Q-13","OBJECT_ID":"2023-174CA","EPOCH":"2026-03-03T04:43:48.607968","MEAN_MOTION":15.46511262,"ECCENTRICITY":0.0007491,"INCLINATION":97.4031,"RA_OF_ASC_NODE":150.2994,"ARG_OF_PERICENTER":172.0588,"MEAN_ANOMALY":188.0782,"EPHEMERIS_TYPE":0,"CLASSIFICATION_TYPE":"U","NORAD_CAT_ID":58328,"ELEMENT_SET_NO":999,"REV_AT_EPOCH":12926,"BSTAR":0.00064927,"MEAN_MOTION_DOT":0.0003226,"MEAN_MOTION_DDOT":0},{"OBJECT_NAME":"FLOCK 4Q-21","OBJECT_ID":"2023-174CB","EPOCH":"2026-03-02T19:51:41.316192","MEAN_MOTION":15.56591717,"ECCENTRICITY":0.0005799,"INCLINATION":97.3941,"RA_OF_ASC_NODE":152.9037,"ARG_OF_PERICENTER":178.8557,"MEAN_ANOMALY":181.2713,"EPHEMERIS_TYPE":0,"CLASSIFICATION_TYPE":"U","NORAD_CAT_ID":58329,"ELEMENT_SET_NO":999,"REV_AT_EPOCH":12942,"BSTAR":0.0007462,"MEAN_MOTION_DOT":0.0005324,"MEAN_MOTION_DDOT":0},{"OBJECT_NAME":"FLOCK 4BE-18","OBJECT_ID":"2024-149N","EPOCH":"2026-03-03T04:07:25.603968","MEAN_MOTION":15.37952671,"ECCENTRICITY":0.0003024,"INCLINATION":97.3789,"RA_OF_ASC_NODE":145.0658,"ARG_OF_PERICENTER":270.5222,"MEAN_ANOMALY":89.5677,"EPHEMERIS_TYPE":0,"CLASSIFICATION_TYPE":"U","NORAD_CAT_ID":60480,"ELEMENT_SET_NO":999,"REV_AT_EPOCH":8599,"BSTAR":0.0006165,"MEAN_MOTION_DOT":0.00022971,"MEAN_MOTION_DDOT":0},{"OBJECT_NAME":"FLOCK 4BE-7","OBJECT_ID":"2024-149P","EPOCH":"2026-03-03T04:16:07.339872","MEAN_MOTION":15.36004767,"ECCENTRICITY":0.0001982,"INCLINATION":97.3822,"RA_OF_ASC_NODE":144.676,"ARG_OF_PERICENTER":265.1044,"MEAN_ANOMALY":94.9973,"EPHEMERIS_TYPE":0,"CLASSIFICATION_TYPE":"U","NORAD_CAT_ID":60481,"ELEMENT_SET_NO":999,"REV_AT_EPOCH":8595,"BSTAR":0.00052867,"MEAN_MOTION_DOT":0.00018476,"MEAN_MOTION_DDOT":0},{"OBJECT_NAME":"FLOCK 4BE-26","OBJECT_ID":"2024-149S","EPOCH":"2026-03-03T05:00:16.398432","MEAN_MOTION":15.42833492,"ECCENTRICITY":0.0005761,"INCLINATION":97.3775,"RA_OF_ASC_NODE":144.9734,"ARG_OF_PERICENTER":258.8004,"MEAN_ANOMALY":101.2597,"EPHEMERIS_TYPE":0,"CLASSIFICATION_TYPE":"U","NORAD_CAT_ID":60484,"ELEMENT_SET_NO":999,"REV_AT_EPOCH":8599,"BSTAR":0.0022163,"MEAN_MOTION_DOT":0.00098201,"MEAN_MOTION_DDOT":0},{"OBJECT_NAME":"FLOCK 4BE-36","OBJECT_ID":"2024-149U","EPOCH":"2026-03-03T04:54:34.514496","MEAN_MOTION":15.38809356,"ECCENTRICITY":0.0002743,"INCLINATION":97.38,"RA_OF_ASC_NODE":145.6355,"ARG_OF_PERICENTER":284.2656,"MEAN_ANOMALY":75.8284,"EPHEMERIS_TYPE":0,"CLASSIFICATION_TYPE":"U","NORAD_CAT_ID":60486,"ELEMENT_SET_NO":999,"REV_AT_EPOCH":8603,"BSTAR":0.0006366,"MEAN_MOTION_DOT":0.00024396,"MEAN_MOTION_DDOT":0},{"OBJECT_NAME":"FLOCK 4BE-25","OBJECT_ID":"2024-149V","EPOCH":"2026-03-03T04:34:28.907040","MEAN_MOTION":15.35740699,"ECCENTRICITY":0.0001167,"INCLINATION":97.3856,"RA_OF_ASC_NODE":144.8376,"ARG_OF_PERICENTER":249.4178,"MEAN_ANOMALY":110.6941,"EPHEMERIS_TYPE":0,"CLASSIFICATION_TYPE":"U","NORAD_CAT_ID":60487,"ELEMENT_SET_NO":999,"REV_AT_EPOCH":8595,"BSTAR":0.00053085,"MEAN_MOTION_DOT":0.00018396,"MEAN_MOTION_DDOT":0},{"OBJECT_NAME":"FLOCK 4BE-31","OBJECT_ID":"2024-149W","EPOCH":"2026-03-03T04:14:38.244192","MEAN_MOTION":15.39582865,"ECCENTRICITY":0.000166,"INCLINATION":97.3855,"RA_OF_ASC_NODE":146.2176,"ARG_OF_PERICENTER":277.9076,"MEAN_ANOMALY":82.1981,"EPHEMERIS_TYPE":0,"CLASSIFICATION_TYPE":"U","NORAD_CAT_ID":60488,"ELEMENT_SET_NO":999,"REV_AT_EPOCH":8604,"BSTAR":0.00068174,"MEAN_MOTION_DOT":0.00026808,"MEAN_MOTION_DDOT":0},{"OBJECT_NAME":"FLOCK 4BE-20","OBJECT_ID":"2024-149X","EPOCH":"2026-03-03T03:58:42.680928","MEAN_MOTION":15.35026395,"ECCENTRICITY":0.0002343,"INCLINATION":97.3762,"RA_OF_ASC_NODE":143.9568,"ARG_OF_PERICENTER":274.1197,"MEAN_ANOMALY":85.9779,"EPHEMERIS_TYPE":0,"CLASSIFICATION_TYPE":"U","NORAD_CAT_ID":60489,"ELEMENT_SET_NO":999,"REV_AT_EPOCH":8593,"BSTAR":0.00048853,"MEAN_MOTION_DOT":0.00016539,"MEAN_MOTION_DDOT":0},{"OBJECT_NAME":"FLOCK 4BE-23","OBJECT_ID":"2024-149Y","EPOCH":"2026-03-03T04:42:27.270144","MEAN_MOTION":15.34668414,"ECCENTRICITY":0.0002055,"INCLINATION":97.3841,"RA_OF_ASC_NODE":144.3058,"ARG_OF_PERICENTER":290.0306,"MEAN_ANOMALY":70.0715,"EPHEMERIS_TYPE":0,"CLASSIFICATION_TYPE":"U","NORAD_CAT_ID":60490,"ELEMENT_SET_NO":999,"REV_AT_EPOCH":8592,"BSTAR":0.00048965,"MEAN_MOTION_DOT":0.00016388,"MEAN_MOTION_DDOT":0},{"OBJECT_NAME":"FLOCK 4BE-15","OBJECT_ID":"2024-149Z","EPOCH":"2026-03-03T05:04:28.778880","MEAN_MOTION":15.39172544,"ECCENTRICITY":0.0002698,"INCLINATION":97.3779,"RA_OF_ASC_NODE":145.3316,"ARG_OF_PERICENTER":333.6517,"MEAN_ANOMALY":26.4591,"EPHEMERIS_TYPE":0,"CLASSIFICATION_TYPE":"U","NORAD_CAT_ID":60491,"ELEMENT_SET_NO":999,"REV_AT_EPOCH":8602,"BSTAR":0.0020722,"MEAN_MOTION_DOT":0.00081144,"MEAN_MOTION_DDOT":0},{"OBJECT_NAME":"FLOCK 4BE-17","OBJECT_ID":"2024-149AA","EPOCH":"2026-03-03T04:22:21.499392","MEAN_MOTION":15.36364348,"ECCENTRICITY":0.0001989,"INCLINATION":97.3837,"RA_OF_ASC_NODE":144.9552,"ARG_OF_PERICENTER":264.2189,"MEAN_ANOMALY":95.8829,"EPHEMERIS_TYPE":0,"CLASSIFICATION_TYPE":"U","NORAD_CAT_ID":60492,"ELEMENT_SET_NO":999,"REV_AT_EPOCH":8596,"BSTAR":0.00055294,"MEAN_MOTION_DOT":0.00019555,"MEAN_MOTION_DDOT":0},{"OBJECT_NAME":"FLOCK 4BE-22","OBJECT_ID":"2024-149AC","EPOCH":"2026-03-03T04:29:02.012640","MEAN_MOTION":15.37408235,"ECCENTRICITY":0.0002708,"INCLINATION":97.379,"RA_OF_ASC_NODE":145.005,"ARG_OF_PERICENTER":292.2655,"MEAN_ANOMALY":67.8302,"EPHEMERIS_TYPE":0,"CLASSIFICATION_TYPE":"U","NORAD_CAT_ID":60494,"ELEMENT_SET_NO":999,"REV_AT_EPOCH":8599,"BSTAR":0.00065178,"MEAN_MOTION_DOT":0.00023868,"MEAN_MOTION_DDOT":0}]
